{"type":"FeatureCollection","features":[{"type":"Feature","properties":{"name":"Azores"},"geometry":{"type":"Point","coordinates":[-28.0,38.6]}},{"type":"Feature","properties":{"name":"Madeira"},"geometry":{"type":"Point","coordinates":[-16.9,32.75]}},{"type":"Feature","properties":{"name":"Canary Islands"},"geometry":{"type":"Point","coordinates":[-16.0,28.3]}},{"type":"Feature","properties":{"name":"Faroe Islands"},"geometry":{"type":"Point","coordinates":[-6.9,62.0]}},{"type":"Feature","properties":{"name":"Jan Mayen"},"geometry":{"type":"Point","coordinates":[-8.5,71.0]}},{"type":"Feature","properties":{"name":"Ascension"},"geometry":{"type":"Point","coordinates":[-14.36,-7.95]}},{"type":"Feature","properties":{"name":"Saint Helena"},"geometry":{"type":"Point","coordinates":[-5.72,-15.97]}},{"type":"Feature","properties":{"name":"Tristan da Cunha"},"geometry":{"type":"Point","coordinates":[-12.28,-37.11]}},{"type":"Feature","properties":{"name":"Falkland Islands"},"geometry":{"type":"Point","coordinates":[-59.5,-51.75]}},{"type":"Feature","properties":{"name":"South Georgia"},"geometry":{"type":"Point","coordinates":[-36.7,-54.4]}},{"type":"Feature","properties":{"name":"South Sandwich Islands"},"geometry":{"type":"Point","coordinates":[-26.5,-57.75]}},{"type":"Feature","properties":{"name":"Fernando de Noronha"},"geometry":{"type":"Point","coordinates":[-32.42,-3.85]}},{"type":"Feature","properties":{"name":"Galápagos Islands"},"geometry":{"type":"Point","coordinates":[-90.55,-0.45]}},{"type":"Feature","properties":{"name":"Hawaii"},"geometry":{"type":"Point","coordinates":[-157.5,20.5]}},{"type":"Feature","properties":{"name":"Revillagigedo Islands"},"geometry":{"type":"Point","coordinates":[-111.0,18.78]}},{"type":"Feature","properties":{"name":"Marquesas Islands"},"geometry":{"type":"Point","coordinates":[-139.4,-9.0]}},{"type":"Feature","properties":{"name":"Tuamotu Islands"},"geometry":{"type":"Point","coordinates":[-142.5,-18.2]}},{"type":"Feature","properties":{"name":"Society Islands"},"geometry":{"type":"Point","coordinates":[-149.6,-17.5]}},{"type":"Feature","properties":{"name":"Gambier Islands"},"geometry":{"type":"Point","coordinates":[-134.95,-23.13]}},{"type":"Feature","properties":{"name":"Austral Islands"},"geometry":{"type":"Point","coordinates":[-149.5,-23.4]}},{"type":"Feature","properties":{"name":"Cook Islands"},"geometry":{"type":"Point","coordinates":[-159.8,-21.2]}},{"type":"Feature","properties":{"name":"Samoa"},"geometry":{"type":"Point","coordinates":[-172.1,-13.8]}},{"type":"Feature","properties":{"name":"Tonga"},"geometry":{"type":"Point","coordinates":[-175.2,-20.0]}},{"type":"Feature","properties":{"name":"Fiji"},"geometry":{"type":"Point","coordinates":[178.0,-17.8]}},{"type":"Feature","properties":{"name":"Vanuatu"},"geometry":{"type":"Point","coordinates":[167.5,-16.0]}},{"type":"Feature","properties":{"name":"New Caledonia"},"geometry":{"type":"Point","coordinates":[165.5,-21.3]}},{"type":"Feature","properties":{"name":"Solomon Islands"},"geometry":{"type":"Point","coordinates":[160.2,-8.5]}},{"type":"Feature","properties":{"name":"Marshall Islands"},"geometry":{"type":"Point","coordinates":[171.2,7.1]}},{"type":"Feature","properties":{"name":"Caroline Islands"},"geometry":{"type":"Point","coordinates":[150.2,7.4]}},{"type":"Feature","properties":{"name":"Mariana Islands"},"geometry":{"type":"Point","coordinates":[145.75,16.0]}},{"type":"Feature","properties":{"name":"Kiribati"},"geometry":{"type":"Point","coordinates":[173.0,1.4]}},{"type":"Feature","properties":{"name":"Line Islands"},"geometry":{"type":"Point","coordinates":[-157.3,1.9]}},{"type":"Feature","properties":{"name":"Phoenix Islands"},"geometry":{"type":"Point","coordinates":[-171.7,-3.7]}},{"type":"Feature","properties":{"name":"Easter Island"},"geometry":{"type":"Point","coordinates":[-109.35,-27.12]}},{"type":"Feature","properties":{"name":"Pitcairn Islands"},"geometry":{"type":"Point","coordinates":[-130.1,-25.07]}},{"type":"Feature","properties":{"name":"Juan Fernández Islands"},"geometry":{"type":"Point","coordinates":[-78.85,-33.64]}},{"type":"Feature","properties":{"name":"Maldives"},"geometry":{"type":"Point","coordinates":[73.5,3.2]}},{"type":"Feature","properties":{"name":"Chagos Archipelago"},"geometry":{"type":"Point","coordinates":[72.0,-6.2]}},{"type":"Feature","properties":{"name":"Seychelles"},"geometry":{"type":"Point","coordinates":[55.5,-4.6]}},{"type":"Feature","properties":{"name":"Mauritius"},"geometry":{"type":"Point","coordinates":[57.55,-20.25]}},{"type":"Feature","properties":{"name":"Réunion"},"geometry":{"type":"Point","coordinates":[55.53,-21.11]}},{"type":"Feature","properties":{"name":"Cocos Islands"},"geometry":{"type":"Point","coordinates":[96.83,-12.16]}},{"type":"Feature","properties":{"name":"Christmas Island"},"geometry":{"type":"Point","coordinates":[105.63,-10.49]}},{"type":"Feature","properties":{"name":"Kerguelen Islands"},"geometry":{"type":"Point","coordinates":[69.3,-49.35]}},{"type":"Feature","properties":{"name":"Crozet Islands"},"geometry":{"type":"Point","coordinates":[51.75,-46.4]}},{"type":"Feature","properties":{"name":"Prince Edward Islands"},"geometry":{"type":"Point","coordinates":[37.75,-46.9]}},{"type":"Feature","properties":{"name":"Amsterdam Island"},"geometry":{"type":"Point","coordinates":[77.55,-37.83]}},{"type":"Feature","properties":{"name":"Bouvet Island"},"geometry":{"type":"Point","coordinates":[3.35,-54.42]}}]}